{
  "links" : {
    "next" : "https://api.nasa.gov/neo/rest/v1/feed?start_date=2005-06-16&end_date=2005-06-16&detailed=true&api_key=t0TVs3DtDT2H8Oy2Zy8m2eVrNsAVKAexjcZXUckd",
    "prev" : "https://api.nasa.gov/neo/rest/v1/feed?start_date=2005-06-14&end_date=2005-06-14&detailed=true&api_key=t0TVs3DtDT2H8Oy2Zy8m2eVrNsAVKAexjcZXUckd",
    "self" : "https://api.nasa.gov/neo/rest/v1/feed?start_date=2005-06-15&end_date=2005-06-15&detailed=true&api_key=t0TVs3DtDT2H8Oy2Zy8m2eVrNsAVKAexjcZXUckd"
  },
  "element_count" : 1,
  "near_earth_objects" : {
    "2005-06-15" : [ {
      "links" : {
        "self" : "https://api.nasa.gov/neo/rest/v1/neo/3672910?api_key=t0TVs3DtDT2H8Oy2Zy8m2eVrNsAVKAexjcZXUckd"
      },
      "neo_reference_id" : "3672910",
      "name" : "(2014 KX76)",
      "nasa_jpl_url" : "http://ssd.jpl.nasa.gov/sbdb.cgi?sstr=3672910",
      "absolute_magnitude_h" : 24.3,
      "estimated_diameter" : {
        "kilometers" : {
          "estimated_diameter_min" : 0.0366906138,
          "estimated_diameter_max" : 0.0820427065
        },
        "meters" : {
          "estimated_diameter_min" : 36.6906137531,
          "estimated_diameter_max" : 82.0427064882
        },
        "miles" : {
          "estimated_diameter_min" : 0.0227984834,
          "estimated_diameter_max" : 0.0509789586
        },
        "feet" : {
          "estimated_diameter_min" : 120.3760332259,
          "estimated_diameter_max" : 269.1689931548
        }
      },
      "is_potentially_hazardous_asteroid" : false,
      "close_approach_data" : [ {
        "close_approach_date" : "2005-06-15",
        "epoch_date_close_approach" : 1118818800000,
        "relative_velocity" : {
          "kilometers_per_second" : "12.3899850215",
          "kilometers_per_hour" : "44603.9460774205",
          "miles_per_hour" : "27715.1574946061"
        },
        "miss_distance" : {
          "astronomical" : "0.2861967638",
          "lunar" : "111.3305435181",
          "kilometers" : "42814428",
          "miles" : "26603652"
        },
        "orbiting_body" : "Earth"
      } ],
      "orbital_data" : {
        "orbit_id" : "10",
        "orbit_determination_date" : "2017-04-06 08:40:16",
        "orbit_uncertainty" : "7",
        "minimum_orbit_intersection" : ".0253116",
        "jupiter_tisserand_invariant" : "4.952",
        "epoch_osculation" : "2458000.5",
        "eccentricity" : ".2165375274482916",
        "semi_major_axis" : "1.30429101166341",
        "inclination" : "9.913214147110164",
        "ascending_node_longitude" : "63.31204630043169",
        "orbital_period" : "544.0767642367385",
        "perihelion_distance" : "1.021863060924784",
        "perihelion_argument" : "155.2452692372039",
        "aphelion_distance" : "1.586718962402035",
        "perihelion_time" : "2457866.028774756382",
        "mean_anomaly" : "88.97575538924978",
        "mean_motion" : ".6616713369574387",
        "equinox" : "J2000"
      }
    } ]
  }
}